IRIDIUM 64 [+]          
1 25287U 98021C   17029.24741676  .00000163  00000-0  51064-4 0  9990
2 25287  86.3961 282.0264 0001951  80.7423 279.3993 14.34220716985085
IRIDIUM 65 [+]          
1 25288U 98021D   17029.25377604  .00000186  00000-0  59482-4 0  9995
2 25288  86.3960 281.9297 0002198  84.7565 275.3882 14.34220447985101
IRIDIUM 66 [+]          
1 25289U 98021E   17029.26010088  .00000177  00000-0  56092-4 0  9991
2 25289  86.3959 281.8315 0002117  86.6614 273.4824 14.34221032985091
IRIDIUM 67 [+]          
1 25290U 98021F   17029.26645827  .00000177  00000-0  56261-4 0  9996
2 25290  86.3960 281.9633 0002055  85.5084 274.6347 14.34220277985115
IRIDIUM 68 [+]          
1 25291U 98021G   17029.27280507  .00000187  00000-0  59874-4 0  9992
2 25291  86.3962 282.0768 0002041  84.0317 276.1112 14.34220075985086
IRIDIUM 69 [-]          
1 25319U 98026A   17029.35290662  .00000132  00000-0  36656-4 0  9993
2 25319  86.4014 304.1293 0003223  50.9843 309.1642 14.38648486983070
IRIDIUM 71 [-]          
1 25320U 98026B   17029.31354846  .00000147  00000-0  41175-4 0  9994
2 25320  86.3993 300.1020 0004171  84.0890 276.0784 14.39059633983490
IRIDIUM 70 [+]          
1 25342U 98032A   17029.32368557  .00000191  00000-0  61279-4 0  9996
2 25342  86.3966 282.2909 0002152  87.5120  44.4044 14.34221863979190
IRIDIUM 72 [+]          
1 25343U 98032B   17029.35524599  .00000178  00000-0  56495-4 0  9999
2 25343  86.3960 281.8984 0002083  85.9623 274.1811 14.34220196979200
IRIDIUM 73 [-]          
1 25344U 98032C   17029.54714990  .00000147  00000-0  33317-4 0  9991
2 25344  86.4412 261.5115 0002364 105.7150 254.4315 14.49006364987476
IRIDIUM 74 [S]          
1 25345U 98032D   17029.29514888  .00000188  00000-0  50634-4 0  9994
2 25345  86.4476 282.3091 0008176 121.1291  17.7609 14.42444342982719
IRIDIUM 75 [+]          
1 25346U 98032E   17029.25026980  .00000036  00000-0  58222-5 0  9996
2 25346  86.3963 282.1897 0002078  84.7026  60.9946 14.34219750979755
IRIDIUM 3 [+]           
1 25431U 98048A   17029.37261024  .00000196  00000-0  62888-4 0  9990
2 25431  86.3988 313.7446 0002264  85.1085  52.2744 14.34217639965710
IRIDIUM 76 [+]          
1 25432U 98048B   17029.39185830  .00000218  00000-0  70940-4 0  9996
2 25432  86.3985 313.4952 0002111  88.4340  50.0988 14.34218069965701
IRIDIUM 82 [+]          
1 25467U 98051A   17029.26453751 -.00000076  00000-0 -34240-4 0  9991
2 25467  86.3928  80.2478 0002127  81.7364 278.4073 14.34215198966709
IRIDIUM 81 [+]          
1 25468U 98051B   17029.53722711  .00000106  00000-0  30942-4 0  9994
2 25468  86.3941  79.7599 0002071  96.1916 263.9516 14.34218065962964
IRIDIUM 80 [+]          
1 25469U 98051C   17029.54030191  .00000125  00000-0  37397-4 0  9992
2 25469  86.3946  80.0399 0002043  95.8253  18.2726 14.34229438962962
IRIDIUM 77 [+]          
1 25471U 98051E   17029.54634322  .00000137  00000-0  42023-4 0  9996
2 25471  86.3937  79.6182 0002259  96.8078  15.8458 14.34223385968162
IRIDIUM 2 [-]           
1 25527U 98066A   17029.33977398  .00001509  00000-0  76354-4 0  9992
2 25527  85.5317 114.2006 0007459 231.2781 128.7792 15.16127329996833
IRIDIUM 86 [+]          
1 25528U 98066B   17029.48312730 -.00000030  00000-0 -17751-4 0  9998
2 25528  86.3927  47.7936 0002288  88.4779 271.6679 14.34217210959486
IRIDIUM 84 [+]          
1 25530U 98066D   17029.51485098 -.00000032  00000-0 -18400-4 0  9997
2 25530  86.3928  47.9430 0002088  89.5315 270.6120 14.34217091957123
IRIDIUM 83 [+]          
1 25531U 98066E   17029.47678853 -.00000032  00000-0 -18344-4 0  9993
2 25531  86.3930  48.0785 0002047  88.1872 271.9559 14.34217555954470
IRIDIUM 20 [+]          
1 25577U 98074A   17029.32698253  .00000204  00000-0  65635-4 0  9996
2 25577  86.3984 313.4453 0002161  83.2280 276.9161 14.34217938948535
IRIDIUM 11 [+]          
1 25578U 98074B   17029.36663095  .00000206  00000-0  66608-4 0  9990
2 25578  86.3983 313.6318 0002177  80.8174  58.5191 14.34218848957504
IRIDIUM 14 [+]          
1 25777U 99032A   17029.31086207  .00000171  00000-0  53958-4 0  9990
2 25777  86.3963 281.9970 0002211  85.8570 274.2878 14.34219805934775
IRIDIUM 21 [+]          
1 25778U 99032B   17029.27913968  .00000181  00000-0  57489-4 0  9993
2 25778  86.3962 282.0309 0001941  87.9745 272.1673 14.34220701928207
IRIDIUM 91 [+]          
1 27372U 02005A   17029.40970162  .00000012  00000-0 -28080-5 0  9993
2 27372  86.3381 345.5394 0002554  85.4679  29.3136 14.34215457791737
IRIDIUM 90 [S]          
1 27373U 02005B   17029.49763839 -.00000025  00000-0 -13466-4 0  9990
2 27373  86.4441  48.0491 0002256  90.9297 269.2162 14.42947458791359
IRIDIUM 94 [+]          
1 27374U 02005C   17029.31069116  .00000208  00000-0  67369-4 0  9991
2 27374  86.3986 313.7815 0002463 100.8724  11.5569 14.34217803796046
IRIDIUM 95 [+]          
1 27375U 02005D   17029.42551991  .00000132  00000-0  40083-4 0  9991
2 27375  86.3755 345.5108 0002198  88.7248 271.4199 14.34216547791022
IRIDIUM 96 [+]          
1 27376U 02005E   17029.47330436 -.00000039  00000-0 -20873-4 0  9999
2 27376  86.3983  17.1527 0001252 120.2526 239.8794 14.34213836796239
IRIDIUM 97 [+]          
1 27450U 02031A   17029.51138099  .00000006  00000-0 -50350-5 0  9994
2 27450  86.3955  16.8630 0002030  83.9103 276.2324 14.34213177770350
IRIDIUM 98 [+]          
1 27451U 02031B   17029.52464072  .00000151  00000-0  46859-4 0  9997
2 27451  86.3937  80.2007 0002087  93.7048  37.8530 14.34217989771427
